{"fetched_at":"2026-07-19T07:04:47.356Z","source":"https://celestrak.org/NORAD/elements/gp.php?GROUP=kuiper&FORMAT=JSON","constellation":"kuiper","records":[{"OBJECT_NAME":"KUIPER-00605","OBJECT_ID":"2026-118X","EPOCH":"2026-07-18T20:00:01.999008","CLASSIFICATION_TYPE":"U","MEAN_MOTION":14.95334571,"ECCENTRICITY":0.0004792,"INCLINATION":51.8914,"RA_OF_ASC_NODE":263.7051,"ARG_OF_PERICENTER":358.0126,"MEAN_ANOMALY":48.7792,"EPHEMERIS_TYPE":0,"NORAD_CAT_ID":69288,"ELEMENT_SET_NO":999,"REV_AT_EPOCH":413,"BSTAR":-0.0079242,"MEAN_MOTION_DOT":-0.00087488,"MEAN_MOTION_DDOT":0},{"OBJECT_NAME":"KUIPER-00606","OBJECT_ID":"2026-118Y","EPOCH":"2026-07-18T20:00:01.999008","CLASSIFICATION_TYPE":"U","MEAN_MOTION":15.28332952,"ECCENTRICITY":0.0002788,"INCLINATION":51.8742,"RA_OF_ASC_NODE":260.1865,"ARG_OF_PERICENTER":305.3992,"MEAN_ANOMALY":333.1439,"EPHEMERIS_TYPE":0,"NORAD_CAT_ID":69289,"ELEMENT_SET_NO":999,"REV_AT_EPOCH":510,"BSTAR":-0.002641,"MEAN_MOTION_DOT":-0.00073554,"MEAN_MOTION_DDOT":0},{"OBJECT_NAME":"KUIPER-00607","OBJECT_ID":"2026-118Z","EPOCH":"2026-07-18T14:01:24.701088","CLASSIFICATION_TYPE":"U","MEAN_MOTION":15.38025795,"ECCENTRICITY":0.0005452,"INCLINATION":51.8676,"RA_OF_ASC_NODE":261.3468,"ARG_OF_PERICENTER":287.869,"MEAN_ANOMALY":72.1702,"EPHEMERIS_TYPE":0,"NORAD_CAT_ID":69290,"ELEMENT_SET_NO":999,"REV_AT_EPOCH":881,"BSTAR":0.00046019,"MEAN_MOTION_DOT":0.0001714,"MEAN_MOTION_DDOT":0},{"OBJECT_NAME":"KUIPER-00608","OBJECT_ID":"2026-118AA","EPOCH":"2026-07-18T14:28:39.478080","CLASSIFICATION_TYPE":"U","MEAN_MOTION":15.33840114,"ECCENTRICITY":0.0009071,"INCLINATION":51.8586,"RA_OF_ASC_NODE":262.1684,"ARG_OF_PERICENTER":315.0661,"MEAN_ANOMALY":44.9589,"EPHEMERIS_TYPE":0,"NORAD_CAT_ID":69291,"ELEMENT_SET_NO":999,"REV_AT_EPOCH":880,"BSTAR":-0.000035652,"MEAN_MOTION_DOT":-0.00001567,"MEAN_MOTION_DDOT":0},{"OBJECT_NAME":"KUIPER-00610","OBJECT_ID":"2026-118AB","EPOCH":"2026-07-18T13:23:58.225920","CLASSIFICATION_TYPE":"U","MEAN_MOTION":15.38378186,"ECCENTRICITY":0.0001081,"INCLINATION":51.8718,"RA_OF_ASC_NODE":261.1896,"ARG_OF_PERICENTER":342.3463,"MEAN_ANOMALY":17.7486,"EPHEMERIS_TYPE":0,"NORAD_CAT_ID":69292,"ELEMENT_SET_NO":999,"REV_AT_EPOCH":881,"BSTAR":0.00065437,"MEAN_MOTION_DOT":0.00024843,"MEAN_MOTION_DDOT":0},{"OBJECT_NAME":"KUIPER-00613","OBJECT_ID":"2026-118AC","EPOCH":"2026-07-18T20:00:01.999008","CLASSIFICATION_TYPE":"U","MEAN_MOTION":14.94626791,"ECCENTRICITY":0.0008409,"INCLINATION":51.8919,"RA_OF_ASC_NODE":263.6813,"ARG_OF_PERICENTER":308.7125,"MEAN_ANOMALY":42.4933,"EPHEMERIS_TYPE":0,"NORAD_CAT_ID":69293,"ELEMENT_SET_NO":999,"REV_AT_EPOCH":480,"BSTAR":-0.0076792,"MEAN_MOTION_DOT":-0.00083369,"MEAN_MOTION_DDOT":0},{"OBJECT_NAME":"KUIPER-00618","OBJECT_ID":"2026-118AD","EPOCH":"2026-07-18T13:41:03.448320","CLASSIFICATION_TYPE":"U","MEAN_MOTION":15.37617417,"ECCENTRICITY":0.0001466,"INCLINATION":51.8736,"RA_OF_ASC_NODE":261.2656,"ARG_OF_PERICENTER":309.753,"MEAN_ANOMALY":50.3327,"EPHEMERIS_TYPE":0,"NORAD_CAT_ID":69294,"ELEMENT_SET_NO":999,"REV_AT_EPOCH":881,"BSTAR":0.00039434,"MEAN_MOTION_DOT":0.00014425,"MEAN_MOTION_DDOT":0},{"OBJECT_NAME":"KUIPER-00620","OBJECT_ID":"2026-118AE","EPOCH":"2026-07-18T13:22:33.406176","CLASSIFICATION_TYPE":"U","MEAN_MOTION":15.38822754,"ECCENTRICITY":0.0000755,"INCLINATION":51.8712,"RA_OF_ASC_NODE":261.1813,"ARG_OF_PERICENTER":284.4006,"MEAN_ANOMALY":75.6897,"EPHEMERIS_TYPE":0,"NORAD_CAT_ID":69295,"ELEMENT_SET_NO":999,"REV_AT_EPOCH":881,"BSTAR":0.00029244,"MEAN_MOTION_DOT":0.00011026,"MEAN_MOTION_DDOT":0},{"OBJECT_NAME":"KUIPER-00423","OBJECT_ID":"2026-140A","EPOCH":"2026-07-18T19:40:46.985664","CLASSIFICATION_TYPE":"U","MEAN_MOTION":15.38536525,"ECCENTRICITY":0.0013924,"INCLINATION":51.8782,"RA_OF_ASC_NODE":245.4942,"ARG_OF_PERICENTER":284.2979,"MEAN_ANOMALY":75.6462,"EPHEMERIS_TYPE":0,"NORAD_CAT_ID":69592,"ELEMENT_SET_NO":999,"REV_AT_EPOCH":610,"BSTAR":0.0003771,"MEAN_MOTION_DOT":0.00014242,"MEAN_MOTION_DDOT":0},{"OBJECT_NAME":"KUIPER-00428","OBJECT_ID":"2026-140B","EPOCH":"2026-07-18T20:41:46.499136","CLASSIFICATION_TYPE":"U","MEAN_MOTION":15.36998871,"ECCENTRICITY":0.000749,"INCLINATION":51.8792,"RA_OF_ASC_NODE":245.7672,"ARG_OF_PERICENTER":41.4852,"MEAN_ANOMALY":318.6702,"EPHEMERIS_TYPE":0,"NORAD_CAT_ID":69593,"ELEMENT_SET_NO":999,"REV_AT_EPOCH":610,"BSTAR":0.00034944,"MEAN_MOTION_DOT":0.00012484,"MEAN_MOTION_DDOT":0},{"OBJECT_NAME":"KUIPER-00481","OBJECT_ID":"2026-140C","EPOCH":"2026-07-18T13:44:24.316224","CLASSIFICATION_TYPE":"U","MEAN_MOTION":15.38069373,"ECCENTRICITY":0.001102,"INCLINATION":51.8772,"RA_OF_ASC_NODE":246.8276,"ARG_OF_PERICENTER":293.2582,"MEAN_ANOMALY":66.7245,"EPHEMERIS_TYPE":0,"NORAD_CAT_ID":69594,"ELEMENT_SET_NO":999,"REV_AT_EPOCH":606,"BSTAR":0.00016192,"MEAN_MOTION_DOT":0.00005778,"MEAN_MOTION_DDOT":0},{"OBJECT_NAME":"KUIPER-00490","OBJECT_ID":"2026-140D","EPOCH":"2026-07-18T20:12:57.019104","CLASSIFICATION_TYPE":"U","MEAN_MOTION":15.38012862,"ECCENTRICITY":0.0006992,"INCLINATION":51.8755,"RA_OF_ASC_NODE":245.6284,"ARG_OF_PERICENTER":349.8085,"MEAN_ANOMALY":10.2759,"EPHEMERIS_TYPE":0,"NORAD_CAT_ID":69595,"ELEMENT_SET_NO":999,"REV_AT_EPOCH":610,"BSTAR":0.00028144,"MEAN_MOTION_DOT":0.00010316,"MEAN_MOTION_DDOT":0},{"OBJECT_NAME":"KUIPER-00493","OBJECT_ID":"2026-140E","EPOCH":"2026-07-18T20:00:01.999008","CLASSIFICATION_TYPE":"U","MEAN_MOTION":15.33350055,"ECCENTRICITY":0.0008265,"INCLINATION":51.8805,"RA_OF_ASC_NODE":246.0023,"ARG_OF_PERICENTER":47.1483,"MEAN_ANOMALY":105.4201,"EPHEMERIS_TYPE":0,"NORAD_CAT_ID":69596,"ELEMENT_SET_NO":999,"REV_AT_EPOCH":550,"BSTAR":-0.00062486,"MEAN_MOTION_DOT":-0.00020785,"MEAN_MOTION_DDOT":0},{"OBJECT_NAME":"KUIPER-00496","OBJECT_ID":"2026-140F","EPOCH":"2026-07-18T07:29:32.531712","CLASSIFICATION_TYPE":"U","MEAN_MOTION":15.34142921,"ECCENTRICITY":0.0010584,"INCLINATION":51.8778,"RA_OF_ASC_NODE":248.8138,"ARG_OF_PERICENTER":60.7807,"MEAN_ANOMALY":299.4235,"EPHEMERIS_TYPE":0,"NORAD_CAT_ID":69597,"ELEMENT_SET_NO":999,"REV_AT_EPOCH":601,"BSTAR":0.00024039253,"MEAN_MOTION_DOT":0.00007703,"MEAN_MOTION_DDOT":0},{"OBJECT_NAME":"KUIPER-00513","OBJECT_ID":"2026-140G","EPOCH":"2026-07-18T12:19:47.046144","CLASSIFICATION_TYPE":"U","MEAN_MOTION":15.38207119,"ECCENTRICITY":0.00080403,"INCLINATION":51.8798,"RA_OF_ASC_NODE":247.1901,"ARG_OF_PERICENTER":349.0724,"MEAN_ANOMALY":11.0088,"EPHEMERIS_TYPE":0,"NORAD_CAT_ID":69598,"ELEMENT_SET_NO":999,"REV_AT_EPOCH":605,"BSTAR":0.00028982747,"MEAN_MOTION_DOT":0.00010707,"MEAN_MOTION_DDOT":0},{"OBJECT_NAME":"KUIPER-00516","OBJECT_ID":"2026-140H","EPOCH":"2026-07-18T20:21:25.681824","CLASSIFICATION_TYPE":"U","MEAN_MOTION":15.37645746,"ECCENTRICITY":0.0007127,"INCLINATION":51.877,"RA_OF_ASC_NODE":245.6702,"ARG_OF_PERICENTER":1.7289,"MEAN_ANOMALY":358.3722,"EPHEMERIS_TYPE":0,"NORAD_CAT_ID":69599,"ELEMENT_SET_NO":999,"REV_AT_EPOCH":610,"BSTAR":0.00034516,"MEAN_MOTION_DOT":0.00012592,"MEAN_MOTION_DDOT":0}]}
