KUIPER-00605            
1 69288U 26118X   26199.83335647 -.00087488  00000+0 -79242-2 0  9999
2 69288  51.8914 263.7051 0004792 358.0126  48.7792 14.95334571  4131
KUIPER-00606            
1 69289U 26118Y   26199.83335647 -.00073554  00000+0 -26410-2 0  9998
2 69289  51.8742 260.1865 0002788 305.3992 333.1439 15.28332952  5109
KUIPER-00607            
1 69290U 26118Z   26199.58431367  .00017140  00000+0  46019-3 0  9993
2 69290  51.8676 261.3468 0005452 287.8690  72.1702 15.38025795  8818
KUIPER-00608            
1 69291U 26118AA  26199.60323470 -.00001567  00000+0 -35652-4 0  9992
2 69291  51.8586 262.1684 0009071 315.0661  44.9589 15.33840114  8805
KUIPER-00610            
1 69292U 26118AB  26199.55831280  .00024843  00000+0  65437-3 0  9993
2 69292  51.8718 261.1896 0001081 342.3463  17.7486 15.38378186  8818
KUIPER-00613            
1 69293U 26118AC  26199.83335647 -.00083369  00000+0 -76792-2 0  9996
2 69293  51.8919 263.6813 0008409 308.7125  42.4933 14.94626791  4806
KUIPER-00618            
1 69294U 26118AD  26199.57017880  .00014425  00000+0  39434-3 0  9992
2 69294  51.8736 261.2656 0001466 309.7530  50.3327 15.37617417  8813
KUIPER-00620            
1 69295U 26118AE  26199.55733109  .00011026  00000+0  29244-3 0  9992
2 69295  51.8712 261.1813 0000755 284.4006  75.6897 15.38822754  8814
KUIPER-00423            
1 69592U 26140A   26199.81998826  .00014242  00000+0  37710-3 0  9995
2 69592  51.8782 245.4942 0013924 284.2979  75.6462 15.38536525  6104
KUIPER-00428            
1 69593U 26140B   26199.86234374  .00012484  00000+0  34944-3 0  9994
2 69593  51.8792 245.7672 0007490  41.4852 318.6702 15.36998871  6104
KUIPER-00481            
1 69594U 26140C   26199.57250366  .00005778  00000+0  16192-3 0  9995
2 69594  51.8772 246.8276 0011020 293.2582  66.7245 15.38069373  6062
KUIPER-00490            
1 69595U 26140D   26199.84232661  .00010316  00000+0  28144-3 0  9998
2 69595  51.8755 245.6284 0006992 349.8085  10.2759 15.38012862  6108
KUIPER-00493            
1 69596U 26140E   26199.83335647 -.00020785  00000+0 -62486-3 0  9996
2 69596  51.8805 246.0023 0008265  47.1483 105.4201 15.33350055  5502
KUIPER-00496            
1 69597U 26140F   26199.31218208  .00007703  00000+0  24039-3 0  9998
2 69597  51.8778 248.8138 0010584  60.7807 299.4235 15.34142921  6017
KUIPER-00513            
1 69598U 26140G   26199.51373896  .00010707  00000+0  28983-3 0  9996
2 69598  51.8798 247.1901 0008040 349.0724  11.0088 15.38207119  6058
KUIPER-00516            
1 69599U 26140H   26199.84821391  .00012592  00000+0  34516-3 0  9994
2 69599  51.8770 245.6702 0007127   1.7289 358.3722 15.37645746  6103
